ONEWEB-0271             
1 48989U 21060Y   24150.67680343  .00000042  00000+0  77028-4 0  9999
2 48989  87.9122  17.7692 0002142  90.8224 269.3152 13.16593860141179
ONEWEB-0272             
1 48990U 21060Z   24150.69894974 -.00002985  00000+0 -78421-2 0  9996
2 48990  87.9122  17.7933 0002316  85.3996 274.7399 13.16606277141122
ONEWEB-0273             
1 48991U 21060AA  24150.64512482 -.00000029  00000+0 -10871-3 0  9996
2 48991  87.9123  17.7906 0002027  80.2628 279.8732 13.16594474141097
ONEWEB-0274             
1 48992U 21060AB  24151.12643671 -.00000167  00000+0 -46921-3 0  9994
2 48992  87.9129  17.7078 0001699 104.7711 255.3608 13.16593908142490
ONEWEB-0275             
1 48993U 21060AC  24150.65936463  .00000002  00000+0 -27878-4 0  9994
2 48993  87.9125  17.7842 0002050  88.0486 272.0880 13.16591907141068
ONEWEB-0276             
1 48994U 21060AD  24150.69261418 -.00000062  00000+0 -19623-3 0  9995
2 48994  87.9121  17.7739 0002138  85.7640 274.3735 13.16595239142385
ONEWEB-0277             
1 48995U 21060AE  24150.70528135 -.00000229  00000+0 -63379-3 0  9992
2 48995  87.9122  17.8092 0002215  89.1311 271.0073 13.16593796141079
ONEWEB-0278             
1 48996U 21060AF  24150.69578711  .00000134  00000+0  31617-3 0  9999
2 48996  87.9122  17.7700 0001884  71.6984 288.4352 13.16592558142515
ONEWEB-0279             
1 48997U 21060AG  24150.70369740 -.00000179  00000+0 -50096-3 0  9995
2 48997  87.9122  17.7658 0002133  90.6935 269.4441 13.16593734141135
ONEWEB-0280             
1 48998U 21060AH  24151.17393129  .00000052  00000+0  10191-3 0  9996
2 48998  87.9126  17.6735 0002041  77.7013 282.4347 13.16592538142420
ONEWEB-0281             
1 48999U 21060AJ  24150.64828326 -.00000032  00000+0 -11628-3 0  9996
2 48999  87.9121  17.7804 0001683  90.4560 269.6763 13.16592329141138
ONEWEB-0282             
1 49000U 21060AK  24151.13434920 -.00000219  00000+0 -60712-3 0  9993
2 49000  87.9121  17.7005 0002203  84.9875 275.1508 13.16593246142499
ONEWEB-0283             
1 49001U 21060AL  24151.12325839 -.00003389  00000+0 -88991-2 0  9990
2 49001  87.9120  17.7092 0002883  93.4523 266.6937 13.16608521142500
ONEWEB-0284             
1 49002U 21060AM  24150.66094806 -.00000032  00000+0 -11738-3 0  9994
2 49002  87.9118  17.7858 0002066  83.9790 276.1576 13.16592031141109
ONEWEB-0285             
1 49075U 21075A   24150.94582009  .00004941  00000+0  13680-1 0  9995
2 49075  87.8926 139.6418 0002195  84.3835 275.7544 13.12500013137064
ONEWEB-0286             
1 49076U 21075B   24150.99335134  .00000855  00000+0  23391-2 0  9997
2 49076  87.8920 139.6367 0001481  87.2919 272.8379 13.12476044137402
ONEWEB-0287             
1 49077U 21075C   24150.51249178  .00000061  00000+0  12351-3 0  9992
2 49077  87.9160 154.8860 0001941  76.9737 283.1611 13.17650488135033
ONEWEB-0288             
1 49078U 21075D   24151.05393995 -.00006724  00000+0 -18764-1 0  9996
2 49078  87.8922 139.6259 0001719  72.3911 287.7405 13.12350924138041
ONEWEB-0289             
1 49079U 21075E   24150.92065020  .00000094  00000+0  21007-3 0  9995
2 49079  87.9162 154.8321 0002127  93.0373 267.1002 13.17650068135661
ONEWEB-0290             
1 49080U 21075F   24150.52356011  .00000089  00000+0  19705-3 0  9992
2 49080  87.9160 154.8723 0002276  77.6277 282.5109 13.17651017135027
ONEWEB-0291             
1 49081U 21075G   24150.58367773  .00000031  00000+0  46874-4 0  9991
2 49081  87.9155 154.8821 0002015  80.3650 279.7709 13.17650509135027
ONEWEB-0293             
1 49082U 21075H   24150.53305254  .00000061  00000+0  12378-3 0  9997
2 49082  87.9159 154.9051 0002141  79.6830 280.4543 13.17650876135043
ONEWEB-0294             
1 49083U 21075J   24150.90781314 -.00008419  00000+0 -23491-1 0  9997
2 49083  87.8924 139.6542 0002098  77.5944 282.5419 13.12351520136429
ONEWEB-0295             
1 49084U 21075K   24150.91430329  .00000101  00000+0  22605-3 0  9992
2 49084  87.9162 154.8067 0001780  76.7030 283.4299 13.17651412135052
ONEWEB-0296             
1 49085U 21075L   24150.89014024  .00003205  00000+0  88659-2 0  9998
2 49085  87.8925 139.6593 0001916  65.0051 295.1277 13.12469125136420
ONEWEB-0297             
1 49086U 21075M   24150.99805249  .00006107  00000+0  16912-1 0  9993
2 49086  87.8950 139.6393 0001371  88.9901 271.1385 13.12511967138035
ONEWEB-0298             
1 49087U 21075N   24150.91748397  .00000108  00000+0  24537-3 0  9995
2 49087  87.9161 154.8246 0001839  85.3442 274.7899 13.17649964135082
ONEWEB-0299             
1 49088U 21075P   24150.91904765  .00000074  00000+0  15859-3 0  9998
2 49088  87.9156 154.7946 0001724  84.8602 275.2726 13.17651345135067
ONEWEB-0300             
1 49089U 21075Q   24150.91242797 -.00000256  00000+0 -74745-3 0  9992
2 49089  87.8925 139.6511 0002109 102.4026 257.7339 13.12444493137051
ONEWEB-0301             
1 49090U 21075R   24151.04898076  .00001899  00000+0  52418-2 0  9990
2 49090  87.8922 139.6274 0001954  96.7050 263.4301 13.12460695137421
ONEWEB-0302             
1 49091U 21075S   24151.03622608  .00001945  00000+0  53674-2 0  9993
2 49091  87.8924 139.6291 0001984  78.2258 281.9093 13.12489978137418
ONEWEB-0304             
1 49092U 21075T   24150.51406831  .00000035  00000+0  56556-4 0  9997
2 49092  87.9160 154.8901 0001903  79.6468 280.4878 13.17650916134989
ONEWEB-0305             
1 49093U 21075U   24151.03771360  .00000007  00000+0 -14348-4 0  9991
2 49093  87.9158 154.7737 0001588  82.6265 277.5047 13.17650859136052
ONEWEB-0308             
1 49094U 21075V   24150.95362763  .00003716  00000+0  10282-1 0  9994
2 49094  87.8925 139.6446 0002061  88.4711 271.6653 13.12493348136411
ONEWEB-0309             
1 49095U 21075W   24150.96652699 -.00000014  00000+0 -70490-4 0  9996
2 49095  87.9162 154.7917 0002355  75.1914 284.9478 13.17650239135040
ONEWEB-0310             
1 49096U 21075X   24150.89173285  .00002867  00000+0  79298-2 0  9997
2 49096  87.8933 139.6627 0002083  82.8166 277.3200 13.12465587137033
ONEWEB-0311             
1 49097U 21075Y   24151.04877320 -.00001449  00000+0 -37662-2 0  9993
2 49097  87.9166 154.7761 0001612  78.9422 281.1891 13.17658701136101
ONEWEB-0312             
1 49098U 21075Z   24150.91115493  .00000071  00000+0  14996-3 0  9999
2 49098  87.9161 154.8355 0001893  73.6366 286.4973 13.17647121135064
ONEWEB-0313             
1 49099U 21075AA  24151.04088016  .00000057  00000+0  11258-3 0  9997
2 49099  87.9158 154.8119 0001848  79.4594 280.6745 13.17650148136074
ONEWEB-0314             
1 49100U 21075AB  24150.95859388  .00000048  00000+0  90060-4 0  9996
2 49100  87.9157 154.7869 0001873  71.3020 288.8315 13.17651898135031
ONEWEB-0315             
1 49101U 21075AC  24151.01871848  .00003805  00000+0  10527-1 0  9991
2 49101  87.8918 139.6258 0001989  90.6097 269.5260 13.12514265138035
ONEWEB-0316             
1 49102U 21075AD  24150.94132489  .00000087  00000+0  18876-3 0  9990
2 49102  87.9132 124.4127 0001817  84.8277 275.3062 13.18688190139601
ONEWEB-0317             
1 49103U 21075AE  24151.01234184  .00003995  00000+0  11051-1 0  9992
2 49103  87.8924 139.6354 0002175  85.1210 275.0167 13.12521814138042
ONEWEB-0318             
1 49104U 21075AF  24151.01403985  .00000052  00000+0  99194-4 0  9998
2 49104  87.9129 124.3922 0001700  81.6852 278.4473 13.18687849139561
ONEWEB-0319             
1 49105U 21075AG  24150.51881544  .00000070  00000+0  14596-3 0  9996
2 49105  87.9161 154.9069 0001444  80.6607 279.4687 13.17650316135013
ONEWEB-0323             
1 49106U 21075AH  24151.00281393  .00004743  00000+0  13127-1 0  9996
2 49106  87.8922 139.6225 0001664  79.6111 280.5205 13.12524669137415
ONEWEB-0329             
1 49107U 21075AJ  24150.90640797  .00000087  00000+0  19187-3 0  9993
2 49107  87.9161 154.8338 0001880  83.0212 277.1134 13.17647247135040
ONEWEB-0330             
1 49108U 21075AK  24150.90799009  .00000117  00000+0  26854-3 0  9998
2 49108  87.9162 154.8338 0001989  80.9947 279.1409 13.17647716135085
ONEWEB-0292             
1 49186U 21083A   24150.87178520  .00000350  00000+0  92297-3 0  9991
2 49186  87.8917 109.2085 0001952  84.3112 275.8239 13.13468903132696
ONEWEB-0303             
1 49187U 21083B   24150.93499944  .00000060  00000+0  12011-3 0  9999
2 49187  87.9130 124.4075 0001781  84.9057 275.2279 13.18688141131361
ONEWEB-0306             
1 49188U 21083C   24150.92551820  .00000052  00000+0  99403-4 0  9993
2 49188  87.9128 124.3969 0002249  85.2723 274.8666 13.18688035131406
ONEWEB-0307             
1 49189U 21083D   24150.86623149  .00000295  00000+0  77212-3 0  9993
2 49189  87.8918 109.2087 0002361  76.9053 283.2339 13.13469158132695
ONEWEB-0320             
1 49190U 21083E   24150.93183915  .00000043  00000+0  76615-4 0  9993
2 49190  87.9130 124.4195 0002035  83.6984 276.4380 13.18687014131360
ONEWEB-0321             
1 49191U 21083F   24150.79958500  .00000087  00000+0  18251-3 0  9997
2 49191  87.9221  63.3420 0002230  82.8721 277.2665 13.20770832138042
ONEWEB-0322             
1 49192U 21083G   24150.93844159  .00000265  00000+0  69153-3 0  9993
2 49192  87.8920 109.1835 0002556  84.0313 276.1107 13.13469197132694
ONEWEB-0324             
1 49193U 21083H   24150.91761473  .00000033  00000+0  51634-4 0  9998
2 49193  87.9130 124.4046 0001995  75.6330 284.5023 13.18683852131380
ONEWEB-0325             
1 49194U 21083J   24150.92236474  .00000053  00000+0  10152-3 0  9999
2 49194  87.9132 124.4173 0002101  85.9192 274.2180 13.18684956131391
ONEWEB-0326             
1 49195U 21083K   24150.93657543 -.00000033  00000+0 -11598-3 0  9990
2 49195  87.9128 124.4134 0001499  78.7968 281.3332 13.18684256131384
ONEWEB-0327             
1 49196U 21083L   24150.91051017  .00000023  00000+0  24420-4 0  9999
2 49196  87.9129 124.4310 0001623  85.3797 274.7521 13.18686205131400
